{"type": "FeatureCollection", "features": [ {"type": "Feature", "properties": {"norad_id": 65077, "name": "CREW DRAGON 11", "group": "stations", "lat": -48.76731639031212, "lon": 126.10111121175592, "alt_km": 423.40982852186244, "timestamp": "2025-12-02T23:34:14.308872+00:00", "meta": {"OBJECT_NAME": "CREW DRAGON 11", "OBJECT_ID": "2025-166A", "EPOCH": "2025-12-02T02:12:50.598720", "MEAN_MOTION": 15.49237019, "ECCENTRICITY": 0.00036389, "INCLINATION": 51.6314, "RA_OF_ASC_NODE": 195.1903, "ARG_OF_PERICENTER": 193.8265, "MEAN_ANOMALY": 166.2625, "EPHEMERIS_TYPE": 0, "CLASSIFICATION_TYPE": "U", "NORAD_CAT_ID": 65077, "ELEMENT_SET_NO": 999, "REV_AT_EPOCH": 214, "BSTAR": 0.00017380747, "MEAN_MOTION_DOT": 9.217e-05, "MEAN_MOTION_DDOT": 0}, "tle": {"line1": "1 65077U 25166A   25336.09225230  .00009217  00000+0  17381-3 0  9998", "line2": "2 65077  51.6314 195.1903 0003638 193.8265 166.2625 15.49237019  2145"}}, "geometry": {"type": "Point", "coordinates": [126.10111121175592, -48.76731639031212]}}, {"type": "Feature", "properties": {"norad_id": 65304, "name": "DRAGON CRS-33", "group": "stations", "lat": -48.76731608773363, "lon": 126.10111250132952, "alt_km": 423.40982855172206, "timestamp": "2025-12-02T23:34:14.308886+00:00", "meta": {"OBJECT_NAME": "DRAGON CRS-33", "OBJECT_ID": "2025-186A", "EPOCH": "2025-12-02T02:12:50.598720", "MEAN_MOTION": 15.49237019, "ECCENTRICITY": 0.00036389, "INCLINATION": 51.6314, "RA_OF_ASC_NODE": 195.1903, "ARG_OF_PERICENTER": 193.8265, "MEAN_ANOMALY": 166.2625, "EPHEMERIS_TYPE": 0, "CLASSIFICATION_TYPE": "U", "NORAD_CAT_ID": 65304, "ELEMENT_SET_NO": 999, "REV_AT_EPOCH": 11, "BSTAR": 0.00017380747, "MEAN_MOTION_DOT": 9.217e-05, "MEAN_MOTION_DDOT": 0}, "tle": {"line1": "1 65304U 25186A   25336.09225230  .00009217  00000+0  17381-3 0  9993", "line2": "2 65304  51.6314 195.1903 0003638 193.8265 166.2625 15.49237019   113"}}, "geometry": {"type": "Point", "coordinates": [126.10111250132952, -48.76731608773363]}}, {"type": "Feature", "properties": {"norad_id": 65586, "name": "PROGRESS-MS 32", "group": "stations", "lat": -48.767315871605156, "lon": 126.10111342245766, "alt_km": 423.4098285730497, "timestamp": "2025-12-02T23:34:14.308896+00:00", "meta": {"OBJECT_NAME": "PROGRESS-MS 32", "OBJECT_ID": "2025-204A", "EPOCH": "2025-12-02T02:12:50.598720", "MEAN_MOTION": 15.49237019, "ECCENTRICITY": 0.00036389, "INCLINATION": 51.6314, "RA_OF_ASC_NODE": 195.1903, "ARG_OF_PERICENTER": 193.8265, "MEAN_ANOMALY": 166.2625, "EPHEMERIS_TYPE": 0, "CLASSIFICATION_TYPE": "U", "NORAD_CAT_ID": 65586, "ELEMENT_SET_NO": 999, "REV_AT_EPOCH": 27, "BSTAR": 0.00017380747, "MEAN_MOTION_DOT": 9.217e-05, "MEAN_MOTION_DDOT": 0}, "tle": {"line1": "1 65586U 25204A   25336.09225230  .00009217  00000+0  17381-3 0  9996", "line2": "2 65586  51.6314 195.1903 0003638 193.8265 166.2625 15.49237019   272"}}, "geometry": {"type": "Point", "coordinates": [126.10111342245766, -48.767315871605156]}}, {"type": "Feature", "properties": {"norad_id": 65616, "name": "CYGNUS NG-23", "group": "stations", "lat": -48.7673156554778, "lon": 126.10111434358099, "alt_km": 423.40982859437736, "timestamp": "2025-12-02T23:34:14.308906+00:00", "meta": {"OBJECT_NAME": "CYGNUS NG-23", "OBJECT_ID": "2025-208A", "EPOCH": "2025-12-02T02:12:50.598720", "MEAN_MOTION": 15.49237019, "ECCENTRICITY": 0.00036389, "INCLINATION": 51.6314, "RA_OF_ASC_NODE": 195.1903, "ARG_OF_PERICENTER": 193.8265, "MEAN_ANOMALY": 166.2625, "EPHEMERIS_TYPE": 0, "CLASSIFICATION_TYPE": "U", "NORAD_CAT_ID": 65616, "ELEMENT_SET_NO": 999, "REV_AT_EPOCH": 22, "BSTAR": 0.00017380747, "MEAN_MOTION_DOT": 9.217e-05, "MEAN_MOTION_DDOT": 0}, "tle": {"line1": "1 65616U 25208A   25336.09225230  .00009217  00000+0  17381-3 0  9994", "line2": "2 65616  51.6314 195.1903 0003638 193.8265 166.2625 15.49237019   221"}}, "geometry": {"type": "Point", "coordinates": [126.10111434358099, -48.7673156554778]}}, {"type": "Feature", "properties": {"norad_id": 65729, "name": "DRAGONFLY", "group": "stations", "lat": -50.83255128596085, "lon": 82.17555090123133, "alt_km": 365.9195360396452, "timestamp": "2025-12-02T23:34:14.308915+00:00", "meta": {"OBJECT_NAME": "DRAGONFLY", "OBJECT_ID": "1998-067XH", "EPOCH": "2025-12-01T23:30:55.051776", "MEAN_MOTION": 15.67818176, "ECCENTRICITY": 0.00064903, "INCLINATION": 51.6258, "RA_OF_ASC_NODE": 190.6875, "ARG_OF_PERICENTER": 211.6532, "MEAN_ANOMALY": 148.4075, "EPHEMERIS_TYPE": 0, "CLASSIFICATION_TYPE": "U", "NORAD_CAT_ID": 65729, "ELEMENT_SET_NO": 999, "REV_AT_EPOCH": 1147, "BSTAR": 0.0011888513, "MEAN_MOTION_DOT": 0.00135201, "MEAN_MOTION_DDOT": 0}, "tle": {"line1": "1 65729U 98067XH  25335.97980384  .00135201  00000+0  11889-2 0  9995", "line2": "2 65729  51.6258 190.6875 0006490 211.6532 148.4075 15.67818176 11475"}}, "geometry": {"type": "Point", "coordinates": [82.17555090123133, -50.83255128596085]}}, {"type": "Feature", "properties": {"norad_id": 65730, "name": "1998-067XJ", "group": "stations", "lat": -20.45479072963545, "lon": 16.800417925536465, "alt_km": 204.18530918619308, "timestamp": "2025-12-02T23:34:14.308926+00:00", "meta": {"OBJECT_NAME": "1998-067XJ", "OBJECT_ID": "1998-067XJ", "EPOCH": "2025-12-01T20:03:18.917568", "MEAN_MOTION": 16.13832998, "ECCENTRICITY": 0.00107559, "INCLINATION": 51.6109, "RA_OF_ASC_NODE": 185.8826, "ARG_OF_PERICENTER": 242.801, "MEAN_ANOMALY": 117.191, "EPHEMERIS_TYPE": 0, "CLASSIFICATION_TYPE": "U", "NORAD_CAT_ID": 65730, "ELEMENT_SET_NO": 999, "REV_AT_EPOCH": 1152, "BSTAR": 0.0027370981, "MEAN_MOTION_DOT": 0.02710772, "MEAN_MOTION_DDOT": 0.014802185}, "tle": {"line1": "1 65730U 98067XJ  25335.83563562  .02710772  14802-1  27371-2 0  9991", "line2": "2 65730  51.6109 185.8826 0010755 242.8010 117.1910 16.13832998 11527"}}, "geometry": {"type": "Point", "coordinates": [16.800417925536465, -20.45479072963545]}}, {"type": "Feature", "properties": {"norad_id": 65731, "name": "1998-067XK", "group": "stations", "lat": 44.97151081775648, "lon": -45.681731200867034, "alt_km": 370.48860415821946, "timestamp": "2025-12-02T23:34:14.308936+00:00", "meta": {"OBJECT_NAME": "1998-067XK", "OBJECT_ID": "1998-067XK", "EPOCH": "2025-12-02T07:44:12.532992", "MEAN_MOTION": 15.63286457, "ECCENTRICITY": 0.0005872, "INCLINATION": 51.6289, "RA_OF_ASC_NODE": 189.9861, "ARG_OF_PERICENTER": 185.6112, "MEAN_ANOMALY": 174.4818, "EPHEMERIS_TYPE": 0, "CLASSIFICATION_TYPE": "U", "NORAD_CAT_ID": 65731, "ELEMENT_SET_NO": 999, "REV_AT_EPOCH": 1151, "BSTAR": 0.00095712, "MEAN_MOTION_DOT": 0.00090128, "MEAN_MOTION_DDOT": 0}, "tle": {"line1": "1 65731U 98067XK  25336.32236728  .00090128  00000+0  95712-3 0  9990", "line2": "2 65731  51.6289 189.9861 0005872 185.6112 174.4818 15.63286457 11511"}}, "geometry": {"type": "Point", "coordinates": [-45.681731200867034, 44.97151081775648]}}, {"type": "Feature", "properties": {"norad_id": 65732, "name": "RSP-03", "group": "stations", "lat": -0.9345227293089658, "lon": -174.60661761663727, "alt_km": 376.81334518798576, "timestamp": "2025-12-02T23:34:14.308946+00:00", "meta": {"OBJECT_NAME": "RSP-03", "OBJECT_ID": "1998-067XL", "EPOCH": "2025-12-02T00:35:43.430208", "MEAN_MOTION": 15.65401132, "ECCENTRICITY": 0.00068166, "INCLINATION": 51.6275, "RA_OF_ASC_NODE": 190.9915, "ARG_OF_PERICENTER": 187.4004, "MEAN_ANOMALY": 172.6892, "EPHEMERIS_TYPE": 0, "CLASSIFICATION_TYPE": "U", "NORAD_CAT_ID": 65732, "ELEMENT_SET_NO": 999, "REV_AT_EPOCH": 1148, "BSTAR": 0.0010736108, "MEAN_MOTION_DOT": 0.00110336, "MEAN_MOTION_DDOT": 0}, "tle": {"line1": "1 65732U 98067XL  25336.02480822  .00110336  00000+0  10736-2 0  9990", "line2": "2 65732  51.6275 190.9915 0006816 187.4004 172.6892 15.65401132 11487"}}, "geometry": {"type": "Point", "coordinates": [-174.60661761663727, -0.9345227293089658]}}, {"type": "Feature", "properties": {"norad_id": 65733, "name": "GHS-01", "group": "stations", "lat": 51.6079760437187, "lon": -84.7169696444067, "alt_km": 354.2588721648872, "timestamp": "2025-12-02T23:34:14.308956+00:00", "meta": {"OBJECT_NAME": "GHS-01", "OBJECT_ID": "1998-067XM", "EPOCH": "2025-12-01T21:13:00.819264", "MEAN_MOTION": 15.69713992, "ECCENTRICITY": 0.00070578, "INCLINATION": 51.6283, "RA_OF_ASC_NODE": 190.8036, "ARG_OF_PERICENTER": 210.2397, "MEAN_ANOMALY": 149.8194, "EPHEMERIS_TYPE": 0, "CLASSIFICATION_TYPE": "U", "NORAD_CAT_ID": 65733, "ELEMENT_SET_NO": 999, "REV_AT_EPOCH": 1147, "BSTAR": 0.0013342092, "MEAN_MOTION_DOT": 0.00164761, "MEAN_MOTION_DDOT": 0}, "tle": {"line1": "1 65733U 98067XM  25335.88403726  .00164761  00000+0  13342-2 0  9999", "line2": "2 65733  51.6283 190.8036 0007057 210.2397 149.8194 15.69713992 11472"}}, "geometry": {"type": "Point", "coordinates": [-84.7169696444067, 51.6079760437187]}}, {"type": "Feature", "properties": {"norad_id": 65941, "name": "YOTSUBA-KULOVER", "group": "stations", "lat": 51.429664004165325, "lon": -87.52725386452943, "alt_km": 386.85579271244114, "timestamp": "2025-12-02T23:34:14.308967+00:00", "meta": {"OBJECT_NAME": "YOTSUBA-KULOVER", "OBJECT_ID": "1998-067XN", "EPOCH": "2025-12-02T00:06:26.525952", "MEAN_MOTION": 15.57616304, "ECCENTRICITY": 0.00022672, "INCLINATION": 51.6288, "RA_OF_ASC_NODE": 193.8589, "ARG_OF_PERICENTER": 162.3434, "MEAN_ANOMALY": 197.7638, "EPHEMERIS_TYPE": 0, "CLASSIFICATION_TYPE": "U", "NORAD_CAT_ID": 65941, "ELEMENT_SET_NO": 999, "REV_AT_EPOCH": 818, "BSTAR": 0.00084730448, "MEAN_MOTION_DOT": 0.00063827, "MEAN_MOTION_DDOT": 0}, "tle": {"line1": "1 65941U 98067XN  25336.00447368  .00063827  00000+0  84730-3 0  9996", "line2": "2 65941  51.6288 193.8589 0002267 162.3434 197.7638 15.57616304  8186"}}, "geometry": {"type": "Point", "coordinates": [-87.52725386452943, 51.429664004165325]}}]}